[{"OBJECT_NAME":"STARLINK-35038","OBJECT_ID":"2025-195AA","EPOCH":"2026-03-09T21:32:05.053344","MEAN_MOTION":15.30191068,"ECCENTRICITY":0.00011368,"INCLINATION":53.1583,"RA_OF_ASC_NODE":257.3196,"ARG_OF_PERICENTER":95.9615,"MEAN_ANOMALY":264.1515,"EPHEMERIS_TYPE":0,"CLASSIFICATION_TYPE":"U","NORAD_CAT_ID":65482,"ELEMENT_SET_NO":999,"REV_AT_EPOCH":3000,"BSTAR":0.00069506035,"MEAN_MOTION_DOT":0.00020277,"MEAN_MOTION_DDOT":0},{"OBJECT_NAME":"ELECTRON KICK STAGE R\/B","OBJECT_ID":"2022-147B","EPOCH":"2026-03-09T22:28:20.187264","MEAN_MOTION":15.28920172,"ECCENTRICITY":0.00095089,"INCLINATION":97.642,"RA_OF_ASC_NODE":85.1135,"ARG_OF_PERICENTER":110.4683,"MEAN_ANOMALY":249.7578,"EPHEMERIS_TYPE":0,"CLASSIFICATION_TYPE":"U","NORAD_CAT_ID":54228,"ELEMENT_SET_NO":999,"REV_AT_EPOCH":18390,"BSTAR":0.00083201931,"MEAN_MOTION_DOT":0.00023374,"MEAN_MOTION_DDOT":0}]
